$$SOE
2459580.500000000, A.D. 2022-Jan-01 00:00:00.0000, 4.952169621692361E+08, -1.848167059736795E+08, 1.371848873061427E+08,
2459587.500000000, A.D. 2022-Jan-08 00:00:00.0000, 4.980930010983952E+08, -1.764937677123522E+08, 1.391255943395366E+08,
2459594.500000000, A.D. 2022-Jan-15 00:00:00.0000, 5.008212741827714E+08, -1.681185212188584E+08, 1.410245369103002E+08,
2459601.500000000, A.D. 2022-Jan-22 00:00:00.0000, 5.034012437997463E+08, -1.596935512073472E+08, 1.428812282387272E+08,
2459608.500000000, A.D. 2022-Jan-29 00:00:00.0000, 5.058324079508983E+08, -1.512214415391387E+08, 1.446951931769035E+08,
2459615.500000000, A.D. 2022-Feb-05 00:00:00.0000, 5.081142978128395E+08, -1.427047756599608E+08, 1.464659682843896E+08,
2459622.500000000, A.D. 2022-Feb-12 00:00:00.0000, 5.102464774689855E+08, -1.341461381162942E+08, 1.481931016205659E+08,
2459629.500000000, A.D. 2022-Feb-19 00:00:00.0000, 5.122285444974960E+08, -1.255481147808508E+08, 1.498761525686727E+08,
2459636.500000000, A.D. 2022-Feb-26 00:00:00.0000, 5.140601301044898E+08, -1.169132925095423E+08, 1.515146917528756E+08,
2459643.500000000, A.D. 2022-Mar-05 00:00:00.0000, 5.157408989621934E+08, -1.082442588463484E+08, 1.531083009833703E+08,
2459650.500000000, A.D. 2022-Mar-12 00:00:00.0000, 5.172705489741194E+08, -9.954360184125778E+07, 1.546565732037340E+08,
2459657.500000000, A.D. 2022-Mar-19 00:00:00.0000, 5.186488110386064E+08, -9.081390995260847E+07, 1.561591124361971E+08,
2459664.500000000, A.D. 2022-Mar-26 00:00:00.0000, 5.198754488334036E+08, -8.205777203912804E+07, 1.576155337222053E+08,
2459671.500000000, A.D. 2022-Apr-02 00:00:00.0000, 5.209502586893392E+08, -7.327777749692883E+07, 1.590254630473931E+08,
2459678.500000000, A.D. 2022-Apr-09 00:00:00.0000, 5.218730698251336E+08, -6.447651653606792E+07, 1.603885372261835E+08,
2459685.500000000, A.D. 2022-Apr-16 00:00:00.0000, 5.226437453002449E+08, -5.565657994171456E+07, 1.617044037663346E+08,
2459692.500000000, A.D. 2022-Apr-23 00:00:00.0000, 5.232621824171135E+08, -4.682055723434962E+07, 1.629727209184546E+08,
2459699.500000000, A.D. 2022-Apr-30 00:00:00.0000, 5.237283107037309E+08, -3.797103547362653E+07, 1.641931578991990E+08,
2459706.500000000, A.D. 2022-May-07 00:00:00.0000, 5.240420905396144E+08, -2.911060067959101E+07, 1.653653948461104E+08,
2459713.500000000, A.D. 2022-May-14 00:00:00.0000, 5.242035138141152E+08, -2.024183883255666E+07, 1.664891226246027E+08,
2459720.500000000, A.D. 2022-May-21 00:00:00.0000, 5.242126045860338E+08, -1.136733569208988E+07, 1.675640427354495E+08,
2459727.500000000, A.D. 2022-May-28 00:00:00.0000, 5.240694192660751E+08, -2.489676393373564E+06, 1.685898672886132E+08,
2459734.500000000, A.D. 2022-Jun-04 00:00:00.0000, 5.237740465994506E+08, 6.388554866534300E+06, 1.695663189926010E+08,
2459741.500000000, A.D. 2022-Jun-11 00:00:00.0000, 5.233266075932781E+08, 1.526477505504091E+07, 1.704931311462498E+08,
2459748.500000000, A.D. 2022-Jun-18 00:00:00.0000, 5.227272554272573E+08, 2.413640245669158E+07, 1.713700476303187E+08,
2459755.500000000, A.D. 2022-Jun-25 00:00:00.0000, 5.219761753767717E+08, 3.300085671969175E+07, 1.721968228932601E+08,
2459762.500000000, A.D. 2022-Jul-02 00:00:00.0000, 5.210735848822266E+08, 4.185555873142822E+07, 1.729732219133462E+08,
2459769.500000000, A.D. 2022-Jul-09 00:00:00.0000, 5.200197341546947E+08, 5.069793050090988E+07, 1.736990201157210E+08,
2459776.500000000, A.D. 2022-Jul-16 00:00:00.0000, 5.188149072623824E+08, 5.952539613212274E+07, 1.743740033379088E+08,
2459783.500000000, A.D. 2022-Jul-23 00:00:00.0000, 5.174594214999215E+08, 6.833538396752131E+07, 1.749979680524820E+08,
2459790.500000000, A.D. 2022-Jul-30 00:00:00.0000, 5.159536251259655E+08, 7.712532654824518E+07, 1.755707215664082E+08,
2459797.500000000, A.D. 2022-Aug-06 00:00:00.0000, 5.142978970683097E+08, 8.589265903872384E+07, 1.760920819204000E+08,
2459804.500000000, A.D. 2022-Aug-13 00:00:00.0000, 5.124926477728547E+08, 9.463481887024060E+07, 1.765618777887873E+08,
2459811.500000000, A.D. 2022-Aug-20 00:00:00.0000, 5.105383196268806E+08, 1.033492461005744E+08, 1.769799484829121E+08,
2459818.500000000, A.D. 2022-Aug-27 00:00:00.0000, 5.084353870247747E+08, 1.120333837635864E+08, 1.773461439926917E+08,
2459825.500000000, A.D. 2022-Sep-03 00:00:00.0000, 5.061843563240870E+08, 1.206846780986105E+08, 1.776603250347468E+08,
2459832.500000000, A.D. 2022-Sep-10 00:00:00.0000, 5.037857657819135E+08, 1.293005786839878E+08, 1.779223631008853E+08,
2459839.500000000, A.D. 2022-Sep-17 00:00:00.0000, 5.012401855009310E+08, 1.378785384734519E+08, 1.781321405041290E+08,
2459846.500000000, A.D. 2022-Sep-24 00:00:00.0000, 4.985482174454732E+08, 1.464160136849062E+08, 1.782895504125695E+08,
2459853.500000000, A.D. 2022-Oct-01 00:00:00.0000, 4.957104957676159E+08, 1.549104635195778E+08, 1.783944968470755E+08,
2459860.500000000, A.D. 2022-Oct-08 00:00:00.0000, 4.927276878502667E+08, 1.633593502336766E+08, 1.784468946476675E+08,
2459867.500000000, A.D. 2022-Oct-15 00:00:00.0000, 4.896004951344792E+08, 1.717601407621695E+08, 1.784466695911719E+08,
2459874.500000000, A.D. 2022-Oct-22 00:00:00.0000, 4.863296515489792E+08, 1.801103082120875E+08, 1.783937587224588E+08,
2459881.500000000, A.D. 2022-Oct-29 00:00:00.0000, 4.829159220404682E+08, 1.884073306326138E+08, 1.782881104585344E+08,
2459888.500000000, A.D. 2022-Nov-05 00:00:00.0000, 4.793601033039246E+08, 1.966486898030909E+08, 1.781296844964473E+08,
2459895.500000000, A.D. 2022-Nov-12 00:00:00.0000, 4.756630247473829E+08, 2.048318713067628E+08, 1.779184518082245E+08,
2459902.500000000, A.D. 2022-Nov-19 00:00:00.0000, 4.718255489715934E+08, 2.129543649370111E+08, 1.776543947107678E+08,
2459909.500000000, A.D. 2022-Nov-26 00:00:00.0000, 4.678485720268275E+08, 2.210136650394615E+08, 1.773375069542785E+08,
2459916.500000000, A.D. 2022-Dec-03 00:00:00.0000, 4.637330236128908E+08, 2.290072707790035E+08, 1.769677938131285E+08,
2459923.500000000, A.D. 2022-Dec-10 00:00:00.0000, 4.594798672678500E+08, 2.369326863509386E+08, 1.765452721766115E+08,
2459930.500000000, A.D. 2022-Dec-17 00:00:00.0000, 4.550901005701289E+08, 2.447874211118016E+08, 1.760699706353632E+08,
2459937.500000000, A.D. 2022-Dec-24 00:00:00.0000, 4.505647554633374E+08, 2.525689895645876E+08, 1.755419295481833E+08,
2459944.500000000, A.D. 2022-Dec-31 00:00:00.0000, 4.459048990615488E+08, 2.602749113063604E+08, 1.749612010654056E+08,
2459951.500000000, A.D. 2023-Jan-07 00:00:00.0000, 4.411116350575364E+08, 2.679027119007385E+08, 1.743278491760497E+08,
2459958.500000000, A.D. 2023-Jan-14 00:00:00.0000, 4.361861037659278E+08, 2.754499251724770E+08, 1.736419499993600E+08,
2459965.500000000, A.D. 2023-Jan-21 00:00:00.0000, 4.311294801561930E+08, 2.829140937529936E+08, 1.729035921210847E+08,
2459972.500000000, A.D. 2023-Jan-28 00:00:00.0000, 4.259429735444252E+08, 2.902927676820691E+08, 1.721128766228387E+08,
2459979.500000000, A.D. 2023-Feb-04 00:00:00.0000, 4.206278287353231E+08, 2.975835040932328E+08, 1.712699170708673E+08,
2459986.500000000, A.D. 2023-Feb-11 00:00:00.0000, 4.151853268184415E+08, 3.047838677894369E+08, 1.703748396126834E+08,
2459993.500000000, A.D. 2023-Feb-18 00:00:00.0000, 4.096167855549538E+08, 3.118914318862964E+08, 1.694277831199000E+08,
2460000.500000000, A.D. 2023-Feb-25 00:00:00.0000, 4.039235596171604E+08, 3.189037783615962E+08, 1.684288993396453E+08,
2460007.500000000, A.D. 2023-Mar-04 00:00:00.0000, 3.981070407821825E+08, 3.258184985305938E+08, 1.673783530464386E+08,
2460014.500000000, A.D. 2023-Mar-11 00:00:00.0000, 3.921686581076783E+08, 3.326331934487225E+08, 1.662763221918879E+08,
2460021.500000000, A.D. 2023-Mar-18 00:00:00.0000, 3.861098781361279E+08, 3.393454741936597E+08, 1.651229980441710E+08,
2460028.500000000, A.D. 2023-Mar-25 00:00:00.0000, 3.799322053309678E+08, 3.459529619810933E+08, 1.639185852954644E+08,
2460035.500000000, A.D. 2023-Apr-01 00:00:00.0000, 3.736371831695871E+08, 3.524532885087968E+08, 1.626633021312544E+08,
2460042.500000000, A.D. 2023-Apr-08 00:00:00.0000, 3.672263952780311E+08, 3.588440977542925E+08, 1.613573804182204E+08,
2460049.500000000, A.D. 2023-Apr-15 00:00:00.0000, 3.607014642693672E+08, 3.651230481202462E+08, 1.600010661343140E+08,
2460056.500000000, A.D. 2023-Apr-22 00:00:00.0000, 3.540640500944652E+08, 3.712878118772311E+08, 1.585946196261762E+08,
2460063.500000000, A.D. 2023-Apr-29 00:00:00.0000, 3.473158506409002E+08, 3.773360741575531E+08, 1.571383156274530E+08,
2460070.500000000, A.D. 2023-May-06 00:00:00.0000, 3.404586028191941E+08, 3.832655332812083E+08, 1.556324433443780E+08,
2460077.500000000, A.D. 2023-May-13 00:00:00.0000, 3.334940831584767E+08, 3.890739015208831E+08, 1.540773066246102E+08,
2460084.500000000, A.D. 2023-May-20 00:00:00.0000, 3.264241081448349E+08, 3.947589058156810E+08, 1.524732241473284E+08,
2460091.500000000, A.D. 2023-May-27 00:00:00.0000, 3.192505344950703E+08, 4.003182884048962E+08, 1.508205296140356E+08,
2460098.500000000, A.D. 2023-Jun-03 00:00:00.0000, 3.119752594226747E+08, 4.057498074085325E+08, 1.491195719364696E+08,
2460105.500000000, A.D. 2023-Jun-10 00:00:00.0000, 3.046002209189641E+08, 4.110512373415148E+08, 1.473707154178445E+08,
2460112.500000000, A.D. 2023-Jun-17 00:00:00.0000, 2.971273981375434E+08, 4.162203695022459E+08, 1.455743399139169E+08,
2460119.500000000, A.D. 2023-Jun-24 00:00:00.0000, 2.895588122013114E+08, 4.212550122920388E+08, 1.437308409487485E+08,
2460126.500000000, A.D. 2023-Jul-01 00:00:00.0000, 2.818965276847135E+08, 4.261529922943063E+08, 1.418406298293307E+08,
2460133.500000000, A.D. 2023-Jul-08 00:00:00.0000, 2.741426530964763E+08, 4.309121569354400E+08, 1.399041339790149E+08,
2460140.500000000, A.D. 2023-Jul-15 00:00:00.0000, 2.662993390838972E+08, 4.355303758976455E+08, 1.379217973747784E+08,
2460147.500000000, A.D. 2023-Jul-22 00:00:00.0000, 2.583687778788924E+08, 4.400055402512363E+08, 1.358940806811028E+08,
2460154.500000000, A.D. 2023-Jul-29 00:00:00.0000, 2.503532044728255E+08, 4.443355624523674E+08, 1.338214612928310E+08,
$$EOE